NORAD_CAT_ID,OBJECT_NAME,OBJECT_TYPE,EPOCH,MEAN_MOTION,ECCENTRICITY,INCLINATION,RA_OF_ASC_NODE,ARG_OF_PERICENTER,MEAN_ANOMALY,BSTAR,MEAN_MOTION_DOT,MEAN_MOTION_DDOT,TLE_LINE0,TLE_LINE1,TLE_LINE2,SEMIMAJOR_AXIS,PERIOD,APOGEE,PERIGEE,DECAYED
49174.0,STARLINK-3047,PAYLOAD,2022-11-02 00:11:02,14.97756247,0.0002711,69.9986,119.9509,297.8603,62.2281,0.00022497,2.553e-05,0.0,0 STARLINK-3047,1 49174U 21082AW  22306.00766271  .00002553  00000-0  22497-3 0  9992,2 49174  69.9986 119.9509 0002711 297.8603  62.2281 14.97756247 64344,6951.968000000003,96.144,575.717,571.948,0.0
49174.0,STARLINK-3047,PAYLOAD,2022-11-02 17:48:54,14.97760881,0.0002747,69.9987,118.1003,298.1986,61.8895,0.00024886,2.835e-05,0.0,0 STARLINK-3047,1 49174U 21082AW  22306.74230224  .00002835  00000-0  24886-3 0  9994,2 49174  69.9987 118.1003 0002747 298.1986  61.8895 14.97760881 64459,6951.953,96.144,575.7280000000002,571.909,0.0
49174.0,STARLINK-3047,PAYLOAD,2022-11-03 11:26:47,14.97766354,0.0002791,69.9986,116.2495,298.4738,61.614,0.00027494,3.142e-05,0.0,0 STARLINK-3047,1 49174U 21082AW  22307.47693926  .00003142  00000-0  27494-3 0  9997,2 49174  69.9986 116.2495 0002791 298.4738  61.6140 14.97766354 64563,6951.936,96.143,575.742,571.861,0.0
49174.0,STARLINK-3047,PAYLOAD,2022-11-03 14:39:08,14.97766342,0.000281,69.9986,115.913,298.4121,61.6755,0.00026289,3e-05,0.0,0 STARLINK-3047,1 49174U 21082AW  22307.61050984  .00003000  00000-0  26289-3 0  9998,2 49174  69.9986 115.9130 0002810 298.4121  61.6755 14.97766342 64584,6951.937,96.143,575.755,571.8480000000002,0.0
49174.0,STARLINK-3047,PAYLOAD,2022-11-04 00:16:09,14.977709699999998,0.0002801,69.9984,114.9032,298.3818,61.7058,0.00031031,3.559e-05,0.0,0 STARLINK-3047,1 49174U 21082AW  22308.01121869  .00003559  00000-0  31031-3 0  9994,2 49174  69.9984 114.9032 0002801 298.3818  61.7058 14.97770970 64640,6951.922,96.143,575.734,571.84,0.0
49174.0,STARLINK-3047,PAYLOAD,2022-11-04 13:05:30,14.97774983,0.000284,69.9985,113.5571,298.2804,61.8068,0.00033011,3.792e-05,0.0,0 STARLINK-3047,1 49174U 21082AW  22308.54549738  .00003792  00000-0  33011-3 0  9990,2 49174  69.9985 113.5571 0002840 298.2804  61.8068 14.97774983 64720,6951.91,96.143,575.749,571.8,0.0
49174.0,STARLINK-3047,PAYLOAD,2022-11-04 14:41:41,14.97775457,0.0002846,69.9985,113.3889,298.2792,61.8079,0.00033095,3.802e-05,0.0,0 STARLINK-3047,1 49174U 21082AW  22308.61228207  .00003802  00000-0  33095-3 0  9997,2 49174  69.9985 113.3889 0002846 298.2792  61.8079 14.97775457 64732,6951.908,96.143,575.752,571.795,0.0
49174.0,STARLINK-3047,PAYLOAD,2022-11-05 00:18:42,14.97779416,0.0002878,69.9985,112.3793,298.516,61.5709,0.0003533,4.066e-05,0.0,0 STARLINK-3047,1 49174U 21082AW  22309.01298932  .00004066  00000-0  35330-3 0  9991,2 49174  69.9985 112.3793 0002878 298.5160  61.5709 14.97779416 64794,6951.896,96.142,575.762,571.76,0.0
49174.0,STARLINK-3047,PAYLOAD,2022-11-05 17:56:34,14.97783771,0.0002906,69.9984,110.5284,298.3289,61.7576,0.00030799,3.533e-05,0.0,0 STARLINK-3047,1 49174U 21082AW  22309.74761781  .00003533  00000-0  30799-3 0  9990,2 49174  69.9984 110.5284 0002906 298.3289  61.7576 14.97783771 64906,6951.8830000000025,96.142,575.768,571.727,0.0
49174.0,STARLINK-3047,PAYLOAD,2022-11-06 03:33:35,14.97785836,0.0002921,69.9984,109.5186,298.3576,61.7288,0.00026138,2.984e-05,0.0,0 STARLINK-3047,1 49174U 21082AW  22310.14832292  .00002984  00000-0  26138-3 0  9993,2 49174  69.9984 109.5186 0002921 298.3576  61.7288 14.97785836 64961,6951.876,96.142,575.7719999999998,571.711,0.0
49174.0,STARLINK-3047,PAYLOAD,2022-11-06 11:34:25,14.97788337,0.0002934,69.9984,108.6773,298.2912,61.795,0.00026185,2.99e-05,0.0,0 STARLINK-3047,1 49174U 21082AW  22310.48224341  .00002990  00000-0  26185-3 0  9999,2 49174  69.9984 108.6773 0002934 298.2912  61.7950 14.97788337 65012,6951.868,96.142,575.773,571.694,0.0
49174.0,STARLINK-3047,PAYLOAD,2022-11-07 11:36:57,14.97796479,0.000298,69.9988,106.1534,298.2778,61.808,0.00029209,3.347e-05,0.0,0 STARLINK-3047,1 49174U 21082AW  22311.48400141  .00003347  00000-0  29209-3 0  9991,2 49174  69.9988 106.1534 0002980 298.2778  61.8080 14.97796479 65162,6951.843000000003,96.141,575.78,571.637,0.0
49174.0,STARLINK-3047,PAYLOAD,2022-11-07 14:49:17,14.97797611,0.0002983,69.9987,105.8169,298.3195,61.7663,0.00029802,3.417e-05,0.0,0 STARLINK-3047,1 49174U 21082AW  22311.61756875  .00003417  00000-0  29802-3 0  9991,2 49174  69.9987 105.8169 0002983 298.3195  61.7663 14.97797611 65185,6951.84,96.141,575.778,571.631,0.0
49174.0,STARLINK-3047,PAYLOAD,2022-11-08 03:38:38,14.97802469,0.0003011,69.9989,104.4708,298.4321,61.6535,0.00030392,3.486e-05,0.0,0 STARLINK-3047,1 49174U 21082AW  22312.15183636  .00003486  00000-0  30392-3 0  9992,2 49174  69.9989 104.4708 0003011 298.4321  61.6535 14.97802469 65260,6951.825,96.141,575.783,571.597,0.0
49174.0,STARLINK-3047,PAYLOAD,2022-11-08 16:27:59,14.97809406,0.0003037,69.9991,103.1249,298.2814,61.8038,0.00038795,4.477e-05,0.0,0 STARLINK-3047,1 49174U 21082AW  22312.68610233  .00004477  00000-0  38795-3 0  9994,2 49174  69.9991 103.1249 0003037 298.2814  61.8038 14.97809406 65349,6951.803000000001,96.14,575.78,571.557,0.0
49174.0,STARLINK-3047,PAYLOAD,2022-11-09 14:54:19,14.978203699999998,0.000308,69.9992,100.769,298.4745,61.6104,0.00042728,4.943e-05,0.0,0 STARLINK-3047,1 49174U 21082AW  22313.62106235  .00004943  00000-0  42728-3 0  9990,2 49174  69.9992 100.7690 0003080 298.4745  61.6104 14.97820370 65486,6951.769,96.14,575.775,571.493,0.0
49174.0,STARLINK-3047,PAYLOAD,2022-11-09 19:42:49,14.97822856,0.0003087,69.9993,100.2643,298.3181,61.7666,0.00043013,4.976e-05,0.0,0 STARLINK-3047,1 49174U 21082AW  22313.82140997  .00004976  00000-0  43013-3 0  9999,2 49174  69.9993 100.2643 0003087 298.3181  61.7666 14.97822856 65519,6951.762,96.14,575.773,571.481,0.0
49174.0,STARLINK-3047,PAYLOAD,2022-11-10 13:20:39,14.97828678,0.0003132,69.9996,98.4136,298.3268,61.7574,0.00035785,4.125e-05,0.0,0 STARLINK-3047,1 49174U 21082AW  22314.55601642  .00004125  00000-0  35785-3 0  9992,2 49174  69.9996  98.4136 0003132 298.3268  61.7574 14.97828678 65622,6951.744000000002,96.139,575.786,571.431,0.0
49174.0,STARLINK-3047,PAYLOAD,2022-11-10 19:45:19,14.97830393,0.0003148,69.9997,97.7407,298.439,61.6451,0.00034836,4.013e-05,0.0,0 STARLINK-3047,1 49174U 21082AW  22314.82314565  .00004013  00000-0  34836-3 0  9999,2 49174  69.9997  97.7407 0003148 298.4390  61.6451 14.97830393 65664,6951.738,96.139,575.7919999999998,571.415,0.0
49174.0,STARLINK-3047,PAYLOAD,2022-11-10 22:57:39,14.97831394,0.0003174,69.9997,97.4042,298.494,61.5899,0.00033927,3.906e-05,0.0,0 STARLINK-3047,1 49174U 21082AW  22314.95670999  .00003906  00000-0  33927-3 0  9999,2 49174  69.9997  97.4042 0003174 298.4940  61.5899 14.97831394 65685,6951.735,96.139,575.807,571.394,0.0
49174.0,STARLINK-3047,PAYLOAD,2022-11-11 11:46:59,14.97836646,0.0003202,69.9998,96.0583,298.2718,61.8117,0.00034473,3.971e-05,0.0,0 STARLINK-3047,1 49174U 21082AW  22315.49096584  .00003971  00000-0  34473-3 0  9990,2 49174  69.9998  96.0583 0003202 298.2718  61.8117 14.97836646 65764,6951.719,96.139,575.81,571.3580000000002,0.0
49174.0,STARLINK-3047,PAYLOAD,2022-11-11 19:47:49,14.97839834,0.0003214,69.9999,95.2169,298.2076,61.8758,0.00035723,4.119e-05,0.0,0 STARLINK-3047,1 49174U 21082AW  22315.82487506  .00004119  00000-0  35723-3 0  9999,2 49174  69.9999  95.2169 0003214 298.2076  61.8758 14.97839834 65815,6951.709,96.138,575.808,571.34,0.0
49174.0,STARLINK-3047,PAYLOAD,2022-11-12 02:12:28,14.97842895,0.000324,69.9999,94.5439,298.0372,62.0459,0.00037079,4.279e-05,0.0,0 STARLINK-3047,1 49174U 21082AW  22316.09200159  .00004279  00000-0  37079-3 0  9999,2 49174  69.9999  94.5439 0003240 298.0372  62.0459 14.97842895 65859,6951.7,96.138,575.817,571.312,0.0
49174.0,STARLINK-3047,PAYLOAD,2022-11-12 13:25:38,14.97847309,0.0003262,69.9999,93.3661,297.9120000000001,62.1708,0.00038514,4.449e-05,0.0,0 STARLINK-3047,1 49174U 21082AW  22316.55947248  .00004449  00000-0  38514-3 0  9991,2 49174  69.9999  93.3661 0003262 297.9120  62.1708 14.97847309 65927,6951.686,96.138,575.819,571.283,0.0
49174.0,STARLINK-3047,PAYLOAD,2022-11-12 19:50:18,14.97849638,0.0003295,69.9999,92.693,298.0877,61.9949,0.00036778,4.244e-05,0.0,0 STARLINK-3047,1 49174U 21082AW  22316.82659784  .00004244  00000-0  36778-3 0  9999,2 49174  69.9999  92.6930 0003295 298.0877  61.9949 14.97849638 65960,6951.679,96.138,575.8340000000002,571.253,0.0
49174.0,STARLINK-3047,PAYLOAD,2022-11-13 02:14:57,14.97851934,0.0003304,70.0,92.02,297.7707,62.3117,0.00035981,4.15e-05,0.0,0 STARLINK-3047,1 49174U 21082AW  22317.09372292  .00004150  00000-0  35981-3 0  9996,2 49174  70.0000  92.0200 0003304 297.7707  62.3117 14.97851934 66009,6951.672,96.138,575.8330000000002,571.24,0.0
49174.0,STARLINK-3047,PAYLOAD,2022-11-13 11:51:56,14.97856791,0.0003297,69.9999,91.0104,297.6061,62.4763,0.00039666,4.586e-05,0.0,0 STARLINK-3047,1 49174U 21082AW  22317.49440964  .00004586  00000-0  39666-3 0  9999,2 49174  69.9999  91.0104 0003297 297.6061  62.4763 14.97856791 66068,6951.656999999997,96.137,575.814,571.23,0.0
49174.0,STARLINK-3047,PAYLOAD,2022-11-13 18:16:36,14.97858507,0.0003315,70.0,90.3374,297.7147,62.3676,0.00037714,4.356e-05,0.0,0 STARLINK-3047,1 49174U 21082AW  22317.76153397  .00004356  00000-0  37714-3 0  9997,2 49174  70.0000  90.3374 0003315 297.7147  62.3676 14.97858507 66106,6951.651,96.137,575.821,571.212,0.0
49174.0,STARLINK-3047,PAYLOAD,2022-11-14 08:42:05,14.97864523,0.0003303,70.0002,88.8228,298.2987,61.7838,0.00036536,4.217e-05,0.0,0 STARLINK-3047,1 49174U 21082AW  22318.36256105  .00004217  00000-0  36536-3 0  9992,2 49174  70.0002  88.8228 0003303 298.2987  61.7838 14.97864523 66190,6951.6330000000025,96.137,575.794,571.202,0.0
